     2.100          NAVIGATION                              RINEX VERSION / TYPE
fic2rin                                 07/27/2010 01:03:51 PGM / RUN BY / DATE
                                                            END OF HEADER
 7 10  7 26 22  0  0.0 -.183889642358D-05 -.113686837722D-12  .000000000000D+00
     .740000000000D+02  .636875000000D+02  .451947396852D-08 -.624254369329D-01
     .338070094585D-05  .383254536428D-02  .244565308094D-05  .515369948578D+04
     .165600000000D+06  .279396772385D-07  .138667228700D+01  .204890966415D-07
     .971916093075D+00  .336250000000D+03  .304067208248D+01 -.832284667997D-08
     .344300055765D-09  .100000000000D+01  .159400000000D+04  .000000000000D+00
     .240000000000D+01  .000000000000D+00 -.102445483208D-07  .740000000000D+02
     .158406000000D+06  .400000000000D+01
 8 10  7 26 22  0  0.0  .624591484666D-05  .113686837722D-12  .000000000000D+00
     .660000000000D+02  .462187500000D+02  .403302513454D-08 -.695849847842D+00
     .237859785557D-05  .112792032305D-01  .204518437386D-05  .515367251778D+04
     .165600000000D+06  .158324837685D-06  .145586506886D+01 -.108033418655D-06
     .993312032165D+00  .352187500000D+03  .311005059203D+01 -.812926718804D-08
     .359657838335D-09  .100000000000D+01  .159400000000D+04  .000000000000D+00
     .340000000000D+01  .000000000000D+00 -.372529029846D-08  .660000000000D+02
     .158406000000D+06  .400000000000D+01
 9 10  7 26 22  0  0.0  .206599943340D-04  .227373675443D-11  .000000000000D+00
     .420000000000D+02  .610937500000D+02  .444518515980D-08 -.827155901861D+00
     .345148146152D-05  .171780231176D-01  .305287539959D-05  .515370316505D+04
     .165600000000D+06 -.167638063431D-06  .135590549888D+01  .162050127983D-06
     .980992096818D+00  .340312500000D+03  .153835420928D+01 -.846320966951D-08
     .401088135502D-09  .100000000000D+01  .159400000000D+04  .000000000000D+00
     .340000000000D+01  .000000000000D+00 -.558793544769D-08  .420000000000D+02
     .158406000000D+06  .400000000000D+01
10 10  7 26 22  0  0.0 -.480432063341D-04 -.102318153949D-11  .000000000000D+00
     .580000000000D+02 -.337500000000D+02  .464269338681D-08 -.300874233593D+01
    -.174902379513D-05  .921439263038D-02  .781565904617D-05  .515353265190D+04
     .165600000000D+06 -.204890966415D-07 -.688888070862D+00 -.819563865662D-07
     .952554926742D+00  .224250000000D+03  .663466849772D+00 -.794854537453D-08
    -.512164190837D-09  .100000000000D+01  .159400000000D+04  .000000000000D+00
     .340000000000D+01  .000000000000D+00 -.279396772385D-08  .580000000000D+02
     .158406000000D+06  .400000000000D+01
11 10  7 26 22  0  0.0 -.782823190093D-04 -.250111042988D-11  .000000000000D+00
     .600000000000D+02  .387812500000D+02  .662527596934D-08 -.206235777382D+00
     .211782753468D-05  .108476550085D-01  .597909092903D-05  .515374988937D+04
     .165600000000D+06 -.279396772385D-07 -.199660301622D+01  .104308128357D-06
     .888014712989D+00  .220968750000D+03  .820686025233D+00 -.921288375359D-08
     .295726603914D-09  .100000000000D+01  .159400000000D+04  .000000000000D+00
     .240000000000D+01  .000000000000D+00 -.116415321827D-07  .600000000000D+02
     .158406000000D+06  .400000000000D+01
12 10  7 26 22  0  0.0 -.895019620657D-04  .397903932026D-11  .000000000000D+00
     .940000000000D+02 -.105593750000D+03  .454911806046D-08 -.147603749934D+00
    -.546500086784D-05  .340827624314D-02  .534392893314D-05  .515364783859D+04
     .165600000000D+06 -.149011611938D-07  .244114110038D+01 -.130385160446D-07
     .971658316669D+00  .283500000000D+03 -.364636491796D+00 -.818748389871D-08
    -.217866217860D-09  .100000000000D+01  .159400000000D+04  .000000000000D+00
     .240000000000D+01  .000000000000D+00 -.116415321827D-07  .940000000000D+02
     .158406000000D+06  .400000000000D+01
13 10  7 26 22  0  0.0  .300989486277D-03 -.682121026330D-12  .000000000000D+00
     .360000000000D+02  .845625000000D+02  .337585490362D-08  .233581243526D+01
     .445544719696D-05  .446119450498D-02  .105500221252D-04  .515373116112D+04
     .165600000000D+06  .465661287308D-07  .406452923996D+00  .689178705215D-07
     .992754805205D+00  .191562500000D+03  .177981142324D+01 -.735137764296D-08
     .123576576032D-09  .100000000000D+01  .159400000000D+04  .000000000000D+00
     .240000000000D+01  .000000000000D+00 -.107102096081D-07  .360000000000D+02
     .158406000000D+06  .400000000000D+01
14 10  7 26 22  0  0.0  .720000825822D-04  .397903932026D-11  .000000000000D+00
     .540000000000D+02  .978750000000D+02  .348300222388D-08  .225463793739D+01
     .518932938576D-05  .530797243118D-02  .113882124424D-04  .515377001572D+04
     .165600000000D+06  .372529029846D-08  .384279852101D+00 -.135973095894D-06
     .985985043538D+00  .170125000000D+03 -.214655558354D+01 -.747102548391D-08
     .159649507186D-09  .100000000000D+01  .159400000000D+04  .000000000000D+00
     .240000000000D+01  .000000000000D+00 -.884756445885D-08  .540000000000D+02
     .158406000000D+06  .400000000000D+01
15 10  7 26 22  0  0.0 -.233446713537D-03  .591171556152D-11  .000000000000D+00
     .640000000000D+02  .833125000000D+02  .429625038464D-08  .213143642028D+01
     .428222119808D-05  .255394866690D-02  .104196369648D-04  .515379229927D+04
     .165600000000D+06 -.372529029846D-08  .318337137322D+00  .000000000000D+00
     .953518031545D+00  .174281250000D+03 -.184705423917D+00 -.784889836669D-08
    -.464305054455D-11  .100000000000D+01  .159400000000D+04  .000000000000D+00
     .240000000000D+01  .000000000000D+00 -.977888703346D-08  .640000000000D+02
     .158406000000D+06  .400000000000D+01
16 10  7 26 22  0  0.0 -.933990813792D-04 -.352429196937D-11  .000000000000D+00
     .440000000000D+02 -.120656250000D+03  .444625663301D-08 -.248728658659D+01
    -.616721808910D-05  .590060115792D-02  .567361712456D-05  .515381073952D+04
     .165600000000D+06 -.132247805595D-06  .245864175968D+01 -.558793544769D-08
     .972857154628D+00  .279531250000D+03 -.172511710605D+00 -.806890753096D-08
    -.286440502825D-09  .100000000000D+01  .159400000000D+04  .000000000000D+00
     .240000000000D+01  .000000000000D+00 -.102445483208D-07  .440000000000D+02
     .158406000000D+06  .400000000000D+01
17 10  7 26 22  0  0.0  .163799617440D-03  .181898940355D-11  .000000000000D+00
     .950000000000D+02 -.301250000000D+02  .429160733410D-08  .274262682729D+01
    -.164285302162D-05  .551532651298D-02  .111442059278D-04  .515364383125D+04
     .165600000000D+06 -.521540641785D-07 -.278194423846D+01 -.894069671631D-07
     .960736553574D+00  .163750000000D+03 -.250178561010D+01 -.769067749044D-08
     .229295265354D-09  .100000000000D+01  .159400000000D+04  .000000000000D+00
     .340000000000D+01  .000000000000D+00 -.102445483208D-07  .950000000000D+02
     .158406000000D+06  .400000000000D+01
18 10  7 26 22  0  0.0  .832462683320D-04  .227373675443D-11  .000000000000D+00
     .108000000000D+03 -.367500000000D+02  .496842124040D-08 -.212502983826D+01
    -.192038714886D-05  .117303928128D-01  .769086182117D-05  .515370655823D+04
     .165600000000D+06  .894069671631D-07 -.689839252882D+00 -.126659870148D-06
     .936513244416D+00  .218375000000D+03 -.231615063048D+01 -.803247744207D-08
    -.479305679291D-09  .100000000000D+01  .159400000000D+04  .000000000000D+00
     .340000000000D+01  .000000000000D+00 -.107102096081D-07  .108000000000D+03
     .158406000000D+06  .400000000000D+01
19 10  7 26 22  0  0.0 -.527501106262D-04 -.295585778076D-11  .000000000000D+00
     .110000000000D+02 -.270000000000D+02  .448054377549D-08  .200598149730D+01
    -.108219683170D-05  .668076460715D-02  .117346644402D-04  .515377364159D+04
     .165600000000D+06  .707805156708D-07 -.272709753641D+01  .214204192162D-06
     .958307974974D+00  .151562500000D+03 -.112447819903D+00 -.788354266691D-08
     .270725562521D-09  .100000000000D+01  .159400000000D+04  .000000000000D+00
     .240000000000D+01  .000000000000D+00 -.149011611938D-07  .110000000000D+02
     .158406000000D+06  .400000000000D+01
20 10  7 26 22  0  0.0  .528879463673D-04 -.454747350886D-12  .000000000000D+00
     .310000000000D+02 -.372812500000D+02  .513021369399D-08 -.187870066969D+01
    -.196695327759D-05  .412239634898D-02  .719167292118D-05  .515356284904D+04
     .165600000000D+06  .154599547386D-06 -.743787557920D+00 -.931322574615D-08
     .936390167655D+00  .229500000000D+03  .131577565031D+01 -.825855828782D-08
    -.636097924603D-09  .100000000000D+01  .159400000000D+04  .000000000000D+00
     .240000000000D+01  .000000000000D+00 -.791624188423D-08  .310000000000D+02
     .158406000000D+06  .400000000000D+01
21 10  7 26 22  0  0.0 -.766995362937D-04 -.261479726760D-11  .000000000000D+00
     .860000000000D+02  .276562500000D+02  .554844540074D-08 -.100180231423D+01
     .145286321640D-05  .167643815512D-01  .475905835629D-05  .515364344978D+04
     .165600000000D+06  .417232513428D-06 -.174666507451D+01  .167638063431D-06
     .931963828126D+00  .270343750000D+03 -.245770498448D+01 -.859571518890D-08
     .154649298907D-09  .100000000000D+01  .159400000000D+04  .000000000000D+00
     .340000000000D+01  .000000000000D+00 -.121071934700D-07  .860000000000D+02
     .158406000000D+06  .400000000000D+01
22 10  7 26 22  0  0.0  .166625250131D-03 -.795807864051D-12  .000000000000D+00
     .720000000000D+02 -.352187500000D+02  .503842415630D-08 -.303871435284D+01
    -.182725489140D-05  .551741418894D-02  .789761543274D-05  .515371327019D+04
     .165600000000D+06  .298023223877D-07 -.685056473363D+00  .000000000000D+00
     .934201321829D+00  .212687500000D+03 -.194367328253D+01 -.812176687562D-08
    -.569666586043D-09  .100000000000D+01  .159400000000D+04  .000000000000D+00
     .340000000000D+01  .000000000000D+00 -.176951289177D-07  .720000000000D+02
     .158406000000D+06  .400000000000D+01
